     2.100          NAVIGATION                              RINEX VERSION / TYPE
fic2rin                                 03/29/2012 00:41:59 PGM / RUN BY / DATE
                                                            END OF HEADER
11 12  3 28 22  0  0.0 -.246114563197D-03 -.375166564481D-11  .000000000000D+00
     .320000000000D+02 -.176562500000D+02  .622454499157D-08  .292384419954D+01
    -.944361090660D-06  .127920103259D-01  .625848770142D-05  .515367182350D+04
     .338400000000D+06  .745058059692D-07 -.372841790106D+00 -.113621354103D-06
     .888299442197D+00  .218187500000D+03  .103472554747D+01 -.860607276319D-08
    -.246438836595D-10  .100000000000D+01  .168100000000D+04  .000000000000D+00
     .240000000000D+01  .000000000000D+00 -.116415321827D-07  .320000000000D+02
     .331206000000D+06  .400000000000D+01
12 12  3 28 22  0  0.0  .604251399636D-04  .216004991671D-11  .000000000000D+00
     .860000000000D+02 -.425000000000D+02  .396052211450D-08  .263274816217D+01
    -.230036675930D-05  .397340860218D-02  .898353755474D-05  .515354627419D+04
     .338400000000D+06 -.875443220139D-07 -.217410418449D+01  .335276126862D-07
     .978991933778D+00  .214750000000D+03 -.256836261690D-01 -.770424948434D-08
     .832177520677D-10  .100000000000D+01  .168100000000D+04  .000000000000D+00
     .240000000000D+01  .000000000000D+00 -.121071934700D-07  .860000000000D+02
     .331206000000D+06  .400000000000D+01
13 12  3 28 22  0  0.0  .216760206968D-03 -.227373675443D-11  .000000000000D+00
     .190000000000D+02  .595937500000D+02  .417481675502D-08 -.115226659566D+01
     .310316681862D-05  .491571275052D-02  .543333590031D-05  .515369431496D+04
     .338400000000D+06 -.894069671631D-07  .208256614527D+01 -.279396772385D-07
     .986163478582D+00  .293656250000D+03  .195427912407D+01 -.802926302246D-08
     .124290891500D-09  .100000000000D+01  .168100000000D+04  .000000000000D+00
     .240000000000D+01  .000000000000D+00 -.111758708954D-07  .190000000000D+02
     .331206000000D+06  .400000000000D+01
14 12  3 28 22  0  0.0  .198492314667D-03  .113686837722D-11  .000000000000D+00
     .580000000000D+02  .640625000000D+02  .428910722996D-08 -.107656271946D+01
     .345148146152D-05  .616810750216D-02  .462867319584D-05  .515357440186D+04
     .338400000000D+06  .428408384323D-07  .205627175520D+01  .132247805595D-06
     .979024053607D+00  .301250000000D+03 -.205827274917D+01 -.810390898891D-08
     .853606984729D-10  .100000000000D+01  .168100000000D+04  .000000000000D+00
     .240000000000D+01  .000000000000D+00 -.884756445885D-08  .580000000000D+02
     .331206000000D+06  .400000000000D+01
15 12  3 28 22  0  0.0 -.916849821806D-04  .227373675443D-12  .000000000000D+00
     .640000000000D+02  .623750000000D+02  .501485174585D-08 -.155280734397D+01
     .303424894810D-05  .438032730017D-02  .455789268017D-05  .515378905106D+04
     .338400000000D+06  .149011611938D-07  .197039117130D+01 -.502914190292D-07
     .945883688218D+00  .283375000000D+03  .659112313188D-01 -.840106422376D-08
     .129291099779D-09  .100000000000D+01  .168100000000D+04  .000000000000D+00
     .240000000000D+01  .000000000000D+00 -.102445483208D-07  .640000000000D+02
     .331206000000D+06  .400000000000D+01
16 12  3 28 22  0  0.0 -.229224562645D-03 -.147792889038D-11  .000000000000D+00
     .660000000000D+02 -.635312500000D+02  .399195199511D-08  .289060865231D+00
    -.337511301041D-05  .658565585036D-02  .867247581482D-05  .515364277077D+04
     .338400000000D+06  .931322574615D-07 -.215599259596D+01  .745058059692D-08
     .979841109447D+00  .219656250000D+03 -.598761120004D-01 -.785889878325D-08
     .300012496725D-10  .100000000000D+01  .168100000000D+04  .000000000000D+00
     .240000000000D+01  .000000000000D+00 -.977888703346D-08  .660000000000D+02
     .331206000000D+06  .400000000000D+01
17 12  3 28 22  0  0.0  .139610376209D-03 -.250111042988D-11  .000000000000D+00
     .800000000000D+02 -.946875000000D+01  .465090801470D-08 -.697324088907D+00
    -.454485416412D-06  .727398402523D-02  .704266130924D-05  .515365391541D+04
     .338400000000D+06  .763684511185D-07 -.111481559586D+01  .106170773506D-06
     .962382067236D+00  .246687500000D+03 -.231452602192D+01 -.814498212834D-08
     .182864759908D-09  .100000000000D+01  .168100000000D+04  .000000000000D+00
     .240000000000D+01  .000000000000D+00 -.107102096081D-07  .800000000000D+02
     .331206000000D+06  .400000000000D+01
18 12  3 28 22  0  0.0  .188352540135D-03  .181898940355D-11  .000000000000D+00
     .740000000000D+02  .577812500000D+02  .519521640162D-08  .783647904801D+00
     .299885869026D-05  .129904827336D-01  .896118581295D-05  .515368302917D+04
     .338400000000D+06 -.134110450745D-06  .954583331416D+00  .856816768646D-07
     .930274979904D+00  .191343750000D+03 -.219074668727D+01 -.848463913356D-08
    -.198579700213D-09  .100000000000D+01  .168100000000D+04  .000000000000D+00
     .240000000000D+01  .000000000000D+00 -.107102096081D-07  .740000000000D+02
     .331206000000D+06  .400000000000D+01
19 12  3 28 22  0  0.0 -.250098761171D-03 -.375166564481D-11  .000000000000D+00
     .630000000000D+02 -.153437500000D+02  .458197657200D-08 -.152033732861D+01
    -.825151801109D-06  .807022303343D-02  .724568963051D-05  .515376180267D+04
     .338400000000D+06 -.186264514923D-07 -.106159495213D+01 -.126659870148D-06
     .959801817678D+00  .240250000000D+03  .143064489222D+00 -.795354558281D-08
     .304655547269D-09  .100000000000D+01  .168100000000D+04  .000000000000D+00
     .240000000000D+01  .000000000000D+00 -.144354999065D-07  .630000000000D+02
     .331206000000D+06  .400000000000D+01
20 12  3 28 22  0  0.0  .632675364614D-04 -.113686837722D-12  .000000000000D+00
     .310000000000D+02  .430312500000D+02  .510806991447D-08  .114360302071D+01
     .218115746975D-05  .510388496332D-02  .925548374653D-05  .515373736954D+04
     .338400000000D+06 -.102445483208D-06  .900818024264D+00 -.260770320892D-07
     .930729126730D+00  .182781250000D+03  .129114792623D+01 -.834891919457D-08
    -.151792037033D-09  .100000000000D+01  .168100000000D+04  .000000000000D+00
     .240000000000D+01  .000000000000D+00 -.791624188423D-08  .310000000000D+02
     .331206000000D+06  .400000000000D+01
21 12  3 28 22  0  0.0 -.213669613004D-03 -.250111042988D-11  .000000000000D+00
     .460000000000D+02 -.195312500000D+02  .527164815673D-08  .183767780764D+01
    -.117719173431D-05  .188714384567D-01  .803731381893D-05  .515363218117D+04
     .338400000000D+06 -.420957803726D-06 -.964684725162D-01 -.216066837311D-06
     .931813419666D+00  .213875000000D+03 -.227407968418D+01 -.835856245339D-08
    -.216080429189D-09  .100000000000D+01  .168100000000D+04  .000000000000D+00
     .240000000000D+01  .000000000000D+00 -.111758708954D-07  .460000000000D+02
     .331206000000D+06  .400000000000D+01
22 12  3 28 22  0  0.0  .143161043525D-03  .227373675443D-12  .000000000000D+00
     .740000000000D+02  .586562500000D+02  .520593113364D-08 -.534349787871D-01
     .304728746414D-05  .584970216732D-02  .905059278011D-05  .515368742561D+04
     .338400000000D+06 -.447034835815D-07  .958086146854D+00  .447034835815D-07
     .927989069464D+00  .188937500000D+03 -.201127489520D+01 -.839392106908D-08
    -.108218793461D-09  .100000000000D+01  .168100000000D+04  .000000000000D+00
     .240000000000D+01  .000000000000D+00 -.167638063431D-07  .740000000000D+02
     .331206000000D+06  .400000000000D+01
23 12  3 28 22  0  0.0  .219985377043D-03 -.352429196937D-11  .000000000000D+00
     .300000000000D+02  .707187500000D+02  .465912264259D-08 -.193797388828D+01
     .343099236488D-05  .766458956059D-02  .545755028725D-05  .515365567589D+04
     .338400000000D+06  .335276126862D-07  .200523810962D+01 -.150874257088D-06
     .960594259921D+00  .276656250000D+03 -.302800025828D+01 -.822355682986D-08
     .197865384745D-09  .100000000000D+01  .168100000000D+04  .000000000000D+00
     .240000000000D+01  .000000000000D+00 -.200234353542D-07  .300000000000D+02
     .331206000000D+06  .400000000000D+01
24 12  3 28 22  0  0.0  .326568260789D-05  .318323145621D-11  .000000000000D+00
     .430000000000D+02  .646562500000D+02  .418803159118D-08 -.171992685996D+01
     .348687171936D-05  .856772845145D-02  .466592609882D-05  .515373927689D+04
     .338400000000D+06  .160187482834D-06  .208870978678D+01  .115483999252D-06
     .981871595853D+00  .299843750000D+03 -.183743765647D+01 -.795676000242D-08
     .111433213069D-09  .100000000000D+01  .168100000000D+04  .000000000000D+00
     .340000000000D+01  .630000000000D+02 -.372529029846D-08  .430000000000D+02
     .331206000000D+06  .400000000000D+01
25 12  3 28 22  0  0.0  .325562432408D-04  .227373675443D-12  .000000000000D+00
     .120000000000D+02 -.506562500000D+02  .425624871841D-08  .141551370377D+01
    -.260211527348D-05  .143760605715D-02  .875070691109D-05  .515374435806D+04
     .338400000000D+06 -.745058059692D-08 -.220748659406D+01  .558793544769D-07
     .967852643542D+00  .213156250000D+03  .601497894482D+00 -.792925885689D-08
     .742888087128D-10  .100000000000D+01  .168100000000D+04  .000000000000D+00
     .240000000000D+01  .000000000000D+00  .558793544769D-08  .120000000000D+02
     .331206000000D+06  .400000000000D+01
26 12  3 28 22  0  0.0 -.223422888666D-03 -.551381162950D-10  .000000000000D+00
     .120000000000D+02  .528437500000D+02  .406266922648D-08 -.207969273717D+01
     .274553894997D-05  .209378805012D-01  .422634184361D-05  .515366055298D+04
     .338400000000D+06  .284984707832D-06  .207672778259D+01  .186264514923D-08
     .983716086855D+00  .304437500000D+03  .118207539480D+01 -.769174896365D-08
     .223223583873D-09  .100000000000D+01  .168100000000D+04  .000000000000D+00
     .240000000000D+01  .000000000000D+00 -.605359673500D-08  .120000000000D+02
     .331206000000D+06  .400000000000D+01
